CCSDS_OMM_VERS = 2.0
CREATION_DATE  = 
ORIGINATOR     = 

OBJECT_NAME    = ALOS-2
OBJECT_ID      = 2014-029A
CENTER_NAME    = EARTH
REF_FRAME      = TEME
TIME_SYSTEM    = UTC
MEAN_ELEMENT_THEORY = SGP/SGP4

EPOCH          = 2025-11-18T04:36:55.814688
MEAN_MOTION    = 14.79475915
ECCENTRICITY   = .0001491
INCLINATION    = 97.9239
RA_OF_ASC_NODE = 57.3872
ARG_OF_PERICENTER = 98.2190
MEAN_ANOMALY   = 261.9191

EPHEMERIS_TYPE = 0
CLASSIFICATION_TYPE = U
NORAD_CAT_ID   = 39766
ELEMENT_SET_NO = 999
REV_AT_EPOCH   = 62038
BSTAR          = .31972E-3
MEAN_MOTION_DOT = .2337E-4
MEAN_MOTION_DDOT = 0

CCSDS_OMM_VERS = 2.0
CREATION_DATE  = 
ORIGINATOR     = 

OBJECT_NAME    = YAOGAN-29
OBJECT_ID      = 2015-069A
CENTER_NAME    = EARTH
REF_FRAME      = TEME
TIME_SYSTEM    = UTC
MEAN_ELEMENT_THEORY = SGP/SGP4

EPOCH          = 2025-11-18T04:33:42.390144
MEAN_MOTION    = 14.82844010
ECCENTRICITY   = .0001845
INCLINATION    = 98.0244
RA_OF_ASC_NODE = 345.2801
ARG_OF_PERICENTER = 38.0931
MEAN_ANOMALY   = 322.0412

EPHEMERIS_TYPE = 0
CLASSIFICATION_TYPE = U
NORAD_CAT_ID   = 41038
ELEMENT_SET_NO = 999
REV_AT_EPOCH   = 53935
BSTAR          = .94983E-4
MEAN_MOTION_DOT = .715E-5
MEAN_MOTION_DDOT = 0

CCSDS_OMM_VERS = 2.0
CREATION_DATE  = 
ORIGINATOR     = 

OBJECT_NAME    = ASTRO-H (HITOMI)
OBJECT_ID      = 2016-012A
CENTER_NAME    = EARTH
REF_FRAME      = TEME
TIME_SYSTEM    = UTC
MEAN_ELEMENT_THEORY = SGP/SGP4

EPOCH          = 2025-11-17T19:44:57.308064
MEAN_MOTION    = 15.09138755
ECCENTRICITY   = .000986
INCLINATION    = 31.0014
RA_OF_ASC_NODE = 357.9743
ARG_OF_PERICENTER = 286.5211
MEAN_ANOMALY   = 73.4344

EPHEMERIS_TYPE = 0
CLASSIFICATION_TYPE = U
NORAD_CAT_ID   = 41337
ELEMENT_SET_NO = 999
REV_AT_EPOCH   = 53531
BSTAR          = .2725E-3
MEAN_MOTION_DOT = .4529E-4
MEAN_MOTION_DDOT = 0

CCSDS_OMM_VERS = 2.0
CREATION_DATE  = 
ORIGINATOR     = 

OBJECT_NAME    = HXMT (HUIYAN)
OBJECT_ID      = 2017-034A
CENTER_NAME    = EARTH
REF_FRAME      = TEME
TIME_SYSTEM    = UTC
MEAN_ELEMENT_THEORY = SGP/SGP4

EPOCH          = 2025-11-18T05:11:39.947712
MEAN_MOTION    = 15.15903459
ECCENTRICITY   = .0034103
INCLINATION    = 43.0149
RA_OF_ASC_NODE = 275.6795
ARG_OF_PERICENTER = 250.9728
MEAN_ANOMALY   = 108.7423

EPHEMERIS_TYPE = 0
CLASSIFICATION_TYPE = U
NORAD_CAT_ID   = 42758
ELEMENT_SET_NO = 999
REV_AT_EPOCH   = 46561
BSTAR          = .45338E-3
MEAN_MOTION_DOT = .8743E-4
MEAN_MOTION_DDOT = 0

CCSDS_OMM_VERS = 2.0
CREATION_DATE  = 
ORIGINATOR     = 

OBJECT_NAME    = CZ-2C R/B
OBJECT_ID      = 2018-054D
CENTER_NAME    = EARTH
REF_FRAME      = TEME
TIME_SYSTEM    = UTC
MEAN_ELEMENT_THEORY = SGP/SGP4

EPOCH          = 2025-11-17T18:20:45.629664
MEAN_MOTION    = 15.68683496
ECCENTRICITY   = .0023339
INCLINATION    = 35.1363
RA_OF_ASC_NODE = 349.5434
ARG_OF_PERICENTER = 257.2024
MEAN_ANOMALY   = 102.6099

EPHEMERIS_TYPE = 0
CLASSIFICATION_TYPE = U
NORAD_CAT_ID   = 43521
ELEMENT_SET_NO = 999
REV_AT_EPOCH   = 41112
BSTAR          = .74442E-3
MEAN_MOTION_DOT = .90159E-3
MEAN_MOTION_DDOT = 0

CCSDS_OMM_VERS = 2.0
CREATION_DATE  = 
ORIGINATOR     = 

OBJECT_NAME    = SAOCOM 1A
OBJECT_ID      = 2018-076A
CENTER_NAME    = EARTH
REF_FRAME      = TEME
TIME_SYSTEM    = UTC
MEAN_ELEMENT_THEORY = SGP/SGP4

EPOCH          = 2025-11-18T03:58:22.482336
MEAN_MOTION    = 14.82174828
ECCENTRICITY   = .0001384
INCLINATION    = 97.8860
RA_OF_ASC_NODE = 146.9445
ARG_OF_PERICENTER = 90.5061
MEAN_ANOMALY   = 269.6311

EPHEMERIS_TYPE = 0
CLASSIFICATION_TYPE = U
NORAD_CAT_ID   = 43641
ELEMENT_SET_NO = 999
REV_AT_EPOCH   = 38484
BSTAR          = .99512E-4
MEAN_MOTION_DOT = .74E-5
MEAN_MOTION_DDOT = 0

CCSDS_OMM_VERS = 2.0
CREATION_DATE  = 
ORIGINATOR     = 

OBJECT_NAME    = H-2A R/B
OBJECT_ID      = 2018-084L
CENTER_NAME    = EARTH
REF_FRAME      = TEME
TIME_SYSTEM    = UTC
MEAN_ELEMENT_THEORY = SGP/SGP4

EPOCH          = 2025-11-18T01:55:04.213632
MEAN_MOTION    = 15.36223857
ECCENTRICITY   = .002898
INCLINATION    = 98.8789
RA_OF_ASC_NODE = 151.0720
ARG_OF_PERICENTER = 50.2828
MEAN_ANOMALY   = 310.0959

EPHEMERIS_TYPE = 0
CLASSIFICATION_TYPE = U
NORAD_CAT_ID   = 43682
ELEMENT_SET_NO = 999
REV_AT_EPOCH   = 38861
BSTAR          = .54068E-3
MEAN_MOTION_DOT = .19275E-3
MEAN_MOTION_DDOT = 0

CCSDS_OMM_VERS = 2.0
CREATION_DATE  = 
ORIGINATOR     = 

OBJECT_NAME    = SAOCOM 1B
OBJECT_ID      = 2020-059A
CENTER_NAME    = EARTH
REF_FRAME      = TEME
TIME_SYSTEM    = UTC
MEAN_ELEMENT_THEORY = SGP/SGP4

EPOCH          = 2025-11-17T23:51:46.769184
MEAN_MOTION    = 14.82146334
ECCENTRICITY   = .0001343
INCLINATION    = 97.8849
RA_OF_ASC_NODE = 145.8777
ARG_OF_PERICENTER = 89.9888
MEAN_ANOMALY   = 270.1479

EPHEMERIS_TYPE = 0
CLASSIFICATION_TYPE = U
NORAD_CAT_ID   = 46265
ELEMENT_SET_NO = 999
REV_AT_EPOCH   = 28220
BSTAR          = .36173E-4
MEAN_MOTION_DOT = .236E-5
MEAN_MOTION_DDOT = 0

CCSDS_OMM_VERS = 2.0
CREATION_DATE  = 
ORIGINATOR     = 

OBJECT_NAME    = CSS (TIANHE)
OBJECT_ID      = 2021-035A
CENTER_NAME    = EARTH
REF_FRAME      = TEME
TIME_SYSTEM    = UTC
MEAN_ELEMENT_THEORY = SGP/SGP4

EPOCH          = 2025-11-18T01:09:04.205376
MEAN_MOTION    = 15.59247950
ECCENTRICITY   = .0006989
INCLINATION    = 41.4653
RA_OF_ASC_NODE = 166.5244
ARG_OF_PERICENTER = 186.4201
MEAN_ANOMALY   = 173.6548

EPHEMERIS_TYPE = 0
CLASSIFICATION_TYPE = U
NORAD_CAT_ID   = 48274
ELEMENT_SET_NO = 999
REV_AT_EPOCH   = 26017
BSTAR          = .30851E-3
MEAN_MOTION_DOT = .24701E-3
MEAN_MOTION_DDOT = 0

CCSDS_OMM_VERS = 2.0
CREATION_DATE  = 
ORIGINATOR     = 

OBJECT_NAME    = COSMOS 2550
OBJECT_ID      = 2021-056A
CENTER_NAME    = EARTH
REF_FRAME      = TEME
TIME_SYSTEM    = UTC
MEAN_ELEMENT_THEORY = SGP/SGP4

EPOCH          = 2025-11-18T04:59:26.899008
MEAN_MOTION    = 15.33806834
ECCENTRICITY   = .0007946
INCLINATION    = 67.1440
RA_OF_ASC_NODE = 18.1375
ARG_OF_PERICENTER = 266.9077
MEAN_ANOMALY   = 93.1168

EPHEMERIS_TYPE = 0
CLASSIFICATION_TYPE = U
NORAD_CAT_ID   = 48865
ELEMENT_SET_NO = 999
REV_AT_EPOCH   = 24636
BSTAR          = .16413E-4
MEAN_MOTION_DOT = .348E-5
MEAN_MOTION_DDOT = 0

CCSDS_OMM_VERS = 2.0
CREATION_DATE  = 
ORIGINATOR     = 

OBJECT_NAME    = CZ-2C R/B
OBJECT_ID      = 2022-058K
CENTER_NAME    = EARTH
REF_FRAME      = TEME
TIME_SYSTEM    = UTC
MEAN_ELEMENT_THEORY = SGP/SGP4

EPOCH          = 2025-11-17T21:13:39.262080
MEAN_MOTION    = 15.46809505
ECCENTRICITY   = .0048297
INCLINATION    = 50.1897
RA_OF_ASC_NODE = 170.1416
ARG_OF_PERICENTER = 95.4750
MEAN_ANOMALY   = 265.1730

EPHEMERIS_TYPE = 0
CLASSIFICATION_TYPE = U
NORAD_CAT_ID   = 52794
ELEMENT_SET_NO = 999
REV_AT_EPOCH   = 19278
BSTAR          = .49421E-3
MEAN_MOTION_DOT = .2605E-3
MEAN_MOTION_DDOT = 0

CCSDS_OMM_VERS = 2.0
CREATION_DATE  = 
ORIGINATOR     = 

OBJECT_NAME    = CZ-2C R/B
OBJECT_ID      = 2022-132E
CENTER_NAME    = EARTH
REF_FRAME      = TEME
TIME_SYSTEM    = UTC
MEAN_ELEMENT_THEORY = SGP/SGP4

EPOCH          = 2025-11-17T22:33:58.826880
MEAN_MOTION    = 15.52895172
ECCENTRICITY   = .002325
INCLINATION    = 97.2949
RA_OF_ASC_NODE = 317.7040
ARG_OF_PERICENTER = 138.9820
MEAN_ANOMALY   = 221.3188

EPHEMERIS_TYPE = 0
CLASSIFICATION_TYPE = U
NORAD_CAT_ID   = 54039
ELEMENT_SET_NO = 999
REV_AT_EPOCH   = 17298
BSTAR          = .47637E-3
MEAN_MOTION_DOT = .299E-3
MEAN_MOTION_DDOT = 0

CCSDS_OMM_VERS = 2.0
CREATION_DATE  = 
ORIGINATOR     = 

OBJECT_NAME    = GSLV R/B
OBJECT_ID      = 2022-138AN
CENTER_NAME    = EARTH
REF_FRAME      = TEME
TIME_SYSTEM    = UTC
MEAN_ELEMENT_THEORY = SGP/SGP4

EPOCH          = 2025-11-18T04:10:24.305952
MEAN_MOTION    = 14.95954357
ECCENTRICITY   = .0020926
INCLINATION    = 87.3855
RA_OF_ASC_NODE = 203.6966
ARG_OF_PERICENTER = 190.1092
MEAN_ANOMALY   = 169.9721

EPHEMERIS_TYPE = 0
CLASSIFICATION_TYPE = U
NORAD_CAT_ID   = 54149
ELEMENT_SET_NO = 999
REV_AT_EPOCH   = 16725
BSTAR          = .2791E-3
MEAN_MOTION_DOT = .3166E-4
MEAN_MOTION_DDOT = 0

CCSDS_OMM_VERS = 2.0
CREATION_DATE  = 
ORIGINATOR     = 

OBJECT_NAME    = XRISM
OBJECT_ID      = 2023-137A
CENTER_NAME    = EARTH
REF_FRAME      = TEME
TIME_SYSTEM    = UTC
MEAN_ELEMENT_THEORY = SGP/SGP4

EPOCH          = 2025-11-18T02:44:58.243200
MEAN_MOTION    = 15.10001921
ECCENTRICITY   = .0007863
INCLINATION    = 31.0029
RA_OF_ASC_NODE = 284.4946
ARG_OF_PERICENTER = 354.4739
MEAN_ANOMALY   = 5.5811

EPHEMERIS_TYPE = 0
CLASSIFICATION_TYPE = U
NORAD_CAT_ID   = 57800
ELEMENT_SET_NO = 999
REV_AT_EPOCH   = 12090
BSTAR          = .43776E-3
MEAN_MOTION_DOT = .739E-4
MEAN_MOTION_DDOT = 0

CCSDS_OMM_VERS = 2.0
CREATION_DATE  = 
ORIGINATOR     = 

OBJECT_NAME    = ACS3
OBJECT_ID      = 2024-077B
CENTER_NAME    = EARTH
REF_FRAME      = TEME
TIME_SYSTEM    = UTC
MEAN_ELEMENT_THEORY = SGP/SGP4

EPOCH          = 2025-11-17T21:30:15.598368
MEAN_MOTION    = 13.83920399
ECCENTRICITY   = .0063439
INCLINATION    = 97.3016
RA_OF_ASC_NODE = 283.0265
ARG_OF_PERICENTER = 20.5244
MEAN_ANOMALY   = 339.8444

EPHEMERIS_TYPE = 0
CLASSIFICATION_TYPE = U
NORAD_CAT_ID   = 59588
ELEMENT_SET_NO = 999
REV_AT_EPOCH   = 7870
BSTAR          = .23863E-1
MEAN_MOTION_DOT = .26961E-3
MEAN_MOTION_DDOT = 0

